QIANFAN-41              
1 62242U 24232F   25221.22227733  .00000051  00000+0  60212-4 0  9999
2 62242  88.9928  53.8816 0013593 186.1273 173.9714 13.50960053 82309
QIANFAN-42              
1 62243U 24232G   25221.16564581  .00000157  00000+0  61328-4 0  9994
2 62243  88.9927  51.7166 0016711 129.5202 230.7471 14.24335581 83499
QIANFAN-43              
1 62244U 24232H   25221.14408358  .00000048  00000+0  55411-4 0  9997
2 62244  88.9932  53.9494 0014900 192.5699 167.5082 13.50952845 50903
QIANFAN-44              
1 62245U 24232J   25221.13177471  .00000056  00000+0  67635-4 0  9996
2 62245  88.9931  53.7632 0013232 188.5839 171.5088 13.50962875 82374
QIANFAN-45              
1 62246U 24232K   25221.17291160  .00000047  00000+0  54293-4 0  9999
2 62246  88.9934  53.9012 0013890 188.5473 171.5443 13.50958612 82308
QIANFAN-46              
1 62247U 24232L   25221.19759083  .00000051  00000+0  60301-4 0  9997
2 62247  88.9930  53.9729 0013775 194.1495 165.9273 13.50960619 82262
QIANFAN-47              
1 62248U 24232M   25221.20163337  .00000055  00000+0  67319-4 0  9991
2 62248  88.9926  53.9105 0014228 193.4533 166.6240 13.50960375 82299
QIANFAN-48              
1 62249U 24232N   25221.16468994  .00000070  00000+0  90291-4 0  9996
2 62249  88.9930  53.9111 0016395 197.3314 162.7280 13.50963249 82293
